ATS 1                   
1 02608U 66110A   09186.64309620 -.00000147  00000-0  10000-3 0  9799
2 02608   7.8811 310.5237 0003742 190.6813 169.4503  1.00291637 72699
ATS 3                   
1 03029U 67111A   09188.38280751 -.00000091  00000-0  10000-3 0  4855
2 03029   9.4055 317.9224 0014323  41.0432 319.1755  1.00272497152588
ORIZURU (DEBUT)         
1 20479U 90013B   09189.18850569 -.00000006  00000-0  50134-4 0  3071
2 20479  99.0706 107.6828 0539874 117.7629 247.9297 12.83685357909721
SURFSAT                 
1 23711U 95059B   09189.08084838 -.00000131  00000-0 -17740-3 0  2776
2 23711 100.3013 191.1784 0368711  70.9107 293.1497 13.12566340655175
MAQSAT H                
1 25023U 97066A   09188.25963104 -.00000142  00000-0 -83095-3 0  6686
2 25023   7.5793 201.6904 6496780 178.2131 186.3033  3.09490277131976
MAQSAT B                
1 25024U 97066B   09187.64903186 -.00000052  00000-0 -18502-3 0  7269
2 25024   7.5809 198.4127 6507432 183.8188 166.2297  3.08766185131855
TEAMSAT                 
1 25025U 97066C   09186.26882687  .00000131  00000-0  13388-2 0  7351
2 25025   7.6107 214.0250 6505720 153.4227 264.8031  3.07912390131430
OPAL (OO-38)            
1 26063U 00004C   09189.05667382 -.00000009  00000-0  17201-4 0  5491
2 26063 100.2128 339.4227 0036770 202.1024 157.8570 14.35867474494949
FALCONSAT               
1 26064U 00004D   09189.03417919 -.00000057  00000-0  91173-6 0  5270
2 26064 100.2135 337.4117 0037935 209.0350 150.8715 14.35419896494806
PICOSAT 1 & 2 [TETHERED]
1 26080U 00004H   09188.94855497  .00000023  00000-0  25916-4 0  1159
2 26080 100.2246   2.9796 0033078 151.4349 208.8674 14.40341481494477
PICOSAT 3               
1 26091U 00004J   09188.64396972  .00000138  00000-0  58276-4 0  6579
2 26091 100.2237  14.0227 0032054 114.8516 245.6017 14.43408137494378
PICOSAT 4               
1 26092U 00004K   09189.04292117  .00000095  00000-0  48371-4 0  5005
2 26092 100.2100 357.2174 0035651 146.7996 213.5433 14.40288217493707
PICOSAT 5               
1 26093U 00004L   09188.55141147  .00000135  00000-0  55998-4 0  3924
2 26093 100.2200  20.8506 0033522  97.8816 262.6207 14.44950560494990
PICOSAT 6               
1 26094U 00004M   09187.40470465  .00000076  00000-0  43030-4 0  8008
2 26094 100.2169 353.5516 0035937 161.8322 198.4153 14.39576287492974
SNAP 1                  
1 26386U 00033C   09188.26632891 -.00000001  00000-0  91903-5 0  7520
2 26386  98.3819 220.7405 0012728 127.6329 232.6041 14.65148181482107
CHAMP                   
1 26405U 00039B   09188.85576313  .00007571  00000-0  31950-4 0  9131
2 26405  87.2225 305.1115 0003118  88.7062 271.4575 15.85139669512928
PICOSAT 9               
1 26930U 01043B   09188.90736034 -.00000042  00000-0  15953-4 0  1903
2 26930  67.0019 349.0330 0001760 263.1926  96.8971 14.30047748405704
PROBA 1                 
1 26958U 01049B   09189.13655001  .00000210  00000-0  26573-4 0  7664
2 26958  97.6218 251.0682 0080551 299.2379  60.0842 14.89674739418943
CUTE-1 (CO-55)          
1 27844U 03031E   09187.99439967  .00000016  00000-0  27484-4 0  6165
2 27844  98.7122 196.8783 0010993  85.2674 274.9773 14.20645091312076
CANX-1                  
1 27847U 03031H   09188.53559607  .00000026  00000-0  32329-4 0  5437
2 27847  98.7050 198.3670 0010349  64.6732 295.5519 14.20967896312181
CUBESAT XI-IV (CO-57)   
1 27848U 03031J   09187.55205740  .00000030  00000-0  34157-4 0  5633
2 27848  98.7147 195.5041 0010734  91.3878 268.8534 14.20446597311972
NAXING 1                
1 28221U 04012B   09188.70184694  .00000034  00000-0  92752-5 0  2177
2 28221  97.4887 222.8203 0012520 126.7920 233.4387 14.87903828283368
ST5-A                   
1 28980U 06008A   09188.89929412  .00001608  00000-0  96385-4 0   329
2 28980 105.6880 188.7160 2357617 190.1224 164.2814 10.61368869127181
ST5-B                   
1 28981U 06008B   09189.11033410  .00006142  15445-5  21129-3 0   853
2 28981 105.6741 209.1744 2336042 169.8468 195.9740 10.73843693128058
ST5-C                   
1 28982U 06008C   09188.55300776  .00003839  15467-5  16190-3 0   815
2 28982 105.6912 203.5181 2346112 178.0149 183.2411 10.69718985127716
GENESIS 1               
1 29252U 06029A   09188.81486639 -.00000140  00000-0  31127-5 0  8150
2 29252  64.5082 289.0736 0030820 208.0858 151.8596 15.03395343164019
FALCONSAT-3             
1 30776U 07006E   09187.82446900  .00000180  00000-0  16055-4 0  6070
2 30776  35.4349 340.2661 0000931  23.3319 336.7438 15.03265347128055
GENESIS 2               
1 31789U 07028A   09188.50805840 -.00000068  00000-0  87368-5 0  5629
2 31789  64.5038 321.1720 0057872 259.5541  99.9044 15.03051903111186
